{"type" : "FeatureCollection", "features" : [{"type": "Feature", "geometry": {"type":"MultiPolygon","coordinates":[[[[8.6679731,47.6771404],[8.6693451,47.6747238],[8.6768818,47.6717732],[8.6790409,47.6678048],[8.6774546,47.6658443],[8.6776838,47.6625816],[8.6803836,47.6581476],[8.6846033,47.6551532],[8.6846022,47.653398],[8.6866969,47.6535974],[8.6880697,47.6499754],[8.7003604,47.6470289],[8.7086867,47.6419089],[8.7141789,47.644383],[8.7196814,47.6411039],[8.7246506,47.6430587],[8.7349164,47.6411762],[8.7434552,47.6430323],[8.7433586,47.6397712],[8.7471948,47.638647],[8.7496663,47.6414556],[8.7578337,47.6431773],[8.7648528,47.6488177],[8.7688253,47.6501869],[8.7761805,47.6488479],[8.7820519,47.6522334],[8.7860064,47.6552079],[8.7885306,47.6653644],[8.8052634,47.6647251],[8.8034214,47.6606402],[8.804938,47.6604031],[8.8048642,47.6522324],[8.8264369,47.6467497],[8.8273911,47.6390613],[8.8202266,47.6293],[8.8178149,47.6298691],[8.8175915,47.6282523],[8.8131357,47.6274418],[8.8135358,47.6245268],[8.8116988,47.6226487],[8.8142918,47.6210847],[8.8115432,47.618976],[8.8139921,47.6172172],[8.8047016,47.6133245],[8.8016724,47.6029607],[8.8028287,47.6011388],[8.7887801,47.6034405],[8.7897965,47.6094092],[8.7621786,47.6180885],[8.7583574,47.6183851],[8.7563112,47.6166255],[8.7481175,47.6230444],[8.7458277,47.6208222],[8.7458047,47.6129489],[8.7401616,47.6118995],[8.7393924,47.6080421],[8.7419616,47.6073434],[8.7420952,47.604622],[8.7462999,47.6003489],[8.7487746,47.6000439],[8.7456563,47.5964902],[8.7482189,47.5923105],[8.7658888,47.5924575],[8.8060382,47.5831495],[8.802384,47.5828386],[8.8010602,47.5805408],[8.8061999,47.5795067],[8.8047615,47.5750486],[8.8081082,47.5743253],[8.8074324,47.5715711],[8.8165856,47.5701717],[8.8172873,47.5719299],[8.8220058,47.5716025],[8.8224829,47.5730633],[8.8300124,47.5711031],[8.8312225,47.5733985],[8.8388035,47.5711971],[8.8377421,47.568559],[8.8392633,47.5684625],[8.8391994,47.5653494],[8.8448477,47.5661365],[8.8442965,47.5632515],[8.850965,47.5636108],[8.8510967,47.5608044],[8.8416889,47.5600337],[8.8386703,47.5573549],[8.829451,47.5576006],[8.8296618,47.556245],[8.827884,47.5559835],[8.8327165,47.5489167],[8.8344084,47.5428855],[8.8362395,47.5429775],[8.8381511,47.5393838],[8.8399326,47.5393349],[8.8408106,47.5326867],[8.855895,47.5314513],[8.8557755,47.5304128],[8.8700046,47.5302474],[8.880396,47.5270307],[8.883444,47.5294184],[8.8983322,47.5241748],[8.8952987,47.5192508],[8.8970938,47.5176869],[8.8971005,47.5050109],[8.8926663,47.5005703],[8.8925775,47.4975182],[8.8928147,47.4884151],[8.8967824,47.4879015],[8.8976935,47.4851124],[8.8852934,47.4817106],[8.8848522,47.4769613],[8.880982,47.4747555],[8.8847124,47.4734715],[8.8833098,47.4711481],[8.8843038,47.4696743],[8.8907231,47.4693052],[8.891807,47.465865],[8.8937304,47.4651284],[8.891708,47.4643707],[8.8956202,47.4627696],[8.8954413,47.459731],[8.9088039,47.4483398],[8.9026509,47.4442432],[8.9068144,47.4387904],[8.910866,47.4366682],[8.9216434,47.4348789],[8.9327159,47.4355437],[8.9330765,47.4341332],[8.9302338,47.4316157],[8.9169958,47.4331715],[8.9136073,47.4315351],[8.910559,47.4340582],[8.9077434,47.4313328],[8.908633,47.4295735],[8.914616,47.4277156],[8.9111572,47.4235541],[8.9138956,47.4182077],[8.9126861,47.4128446],[8.9050761,47.4054949],[8.903465,47.4020567],[8.9208114,47.399466],[8.9318719,47.3914767],[8.9415591,47.3873132],[8.9436738,47.3841263],[8.9401302,47.3797502],[8.9435245,47.375917],[8.9450332,47.3782218],[8.9549229,47.3814842],[8.9574396,47.3864331],[8.9663466,47.3857039],[8.9674456,47.3904765],[8.9714795,47.3912881],[8.9756919,47.3993349],[8.972173,47.4043237],[8.9765723,47.4106732],[8.9817893,47.4124905],[8.9887235,47.4112635],[8.9904293,47.4138382],[8.9892799,47.4142418],[8.9911545,47.4208994],[8.994243,47.4223356],[8.9894475,47.4249681],[8.9908141,47.4281114],[8.9874682,47.429708],[8.9942766,47.4298368],[8.9998545,47.4321388],[8.9991956,47.4351054],[9.0032879,47.4339771],[9.0101063,47.4352835],[9.0119739,47.4334613],[9.0187431,47.4367688],[9.0196472,47.4403286],[9.0221498,47.4416775],[9.0264673,47.4372291],[9.0316051,47.4376262],[9.0332933,47.4399302],[9.0350094,47.4392514],[9.0368117,47.4375581],[9.0340059,47.4354802],[9.0383127,47.4371253],[9.0366173,47.4395057],[9.0381874,47.4398421],[9.0380946,47.4414518],[9.0426749,47.4401434],[9.045248,47.4417084],[9.0450792,47.440692],[9.0462637,47.4416589],[9.0451,47.4429075],[9.0473762,47.442857],[9.0474581,47.4442335],[9.0530133,47.4425594],[9.0516949,47.4441768],[9.0603728,47.4433246],[9.0601856,47.444979],[9.0625474,47.4462445],[9.0545843,47.4485273],[9.0543253,47.4505763],[9.0503633,47.4528613],[9.0272279,47.4577402],[9.0264127,47.4601448],[9.0307268,47.4617914],[9.02848,47.4637401],[9.029486,47.4666606],[9.008213,47.4723692],[9.0119666,47.4753471],[9.00873,47.4757936],[9.0087899,47.4797543],[9.0035809,47.4811941],[9.010783,47.4854659],[9.011586,47.4868568],[9.0102094,47.487746],[9.0124778,47.4899739],[9.017442,47.4901024],[9.0201957,47.4882762],[9.0262623,47.4900764],[9.0283087,47.4886722],[9.0351149,47.492193],[9.0360297,47.4914376],[9.0410512,47.4947278],[9.0402759,47.495765],[9.0420862,47.4957928],[9.0442147,47.4927986],[9.0510873,47.4921803],[9.0500416,47.4916299],[9.0515399,47.4898865],[9.0540313,47.4897057],[9.0558181,47.4874132],[9.0592111,47.488339],[9.0584867,47.4901622],[9.0626472,47.492467],[9.0644384,47.4908198],[9.082355,47.4952392],[9.0850855,47.49024],[9.0835952,47.4890379],[9.0863801,47.4883026],[9.0898588,47.4827714],[9.0977442,47.4838949],[9.0985481,47.4856069],[9.1128473,47.4844177],[9.1124542,47.4831785],[9.1144144,47.482945],[9.1159947,47.4797329],[9.1181242,47.4797094],[9.12413,47.4813585],[9.1240464,47.4836463],[9.1254005,47.4841481],[9.1372563,47.4857898],[9.1420247,47.4843962],[9.1484881,47.4871301],[9.1553895,47.4876569],[9.1586202,47.4898767],[9.16259,47.4965015],[9.1607182,47.4999861],[9.165868,47.5040821],[9.1680111,47.5012771],[9.1692107,47.5039988],[9.1719586,47.5033236],[9.1691694,47.4983058],[9.1737101,47.4945147],[9.1774174,47.494847],[9.1785964,47.4960777],[9.1775409,47.4970347],[9.1809939,47.4973722],[9.182856,47.4913451],[9.1887775,47.4931076],[9.1933709,47.4912201],[9.193063,47.4889388],[9.1967448,47.4905185],[9.19877,47.4889782],[9.2098857,47.4893269],[9.2064,47.4866805],[9.2078815,47.4832101],[9.2063698,47.4824775],[9.2098438,47.4820022],[9.2089576,47.4801744],[9.2131888,47.4789088],[9.2146329,47.4819149],[9.2182845,47.4838123],[9.2247012,47.4845577],[9.2323141,47.4832339],[9.2321982,47.4810574],[9.237915,47.4817564],[9.2445998,47.4802837],[9.2470467,47.4758303],[9.2511535,47.4744953],[9.2522601,47.4756094],[9.2635322,47.4746689],[9.2783593,47.4793971],[9.2811768,47.4830722],[9.2869872,47.4822346],[9.2877859,47.4799469],[9.2986449,47.4772327],[9.3084583,47.4819944],[9.3090376,47.4842369],[9.3151352,47.486318],[9.3164486,47.4889009],[9.3208334,47.491096],[9.3192777,47.4937994],[9.3200311,47.4971416],[9.317247,47.5005128],[9.3081249,47.4982298],[9.3092278,47.5006916],[9.3083954,47.5052947],[9.310149,47.5076413],[9.3150427,47.5068893],[9.3166065,47.509596],[9.3116673,47.5103558],[9.3033517,47.5156622],[9.3019243,47.5141207],[9.3032767,47.5135957],[9.3025769,47.5123433],[9.2993608,47.5120963],[9.2977276,47.5091702],[9.2953431,47.5096195],[9.29156,47.5066644],[9.2863927,47.5076347],[9.2810026,47.5056901],[9.2745112,47.5068044],[9.2715652,47.5078357],[9.2687617,47.5116691],[9.2753857,47.5131558],[9.2783386,47.5100797],[9.280356,47.510081],[9.2794727,47.5139777],[9.2826656,47.5146506],[9.2848198,47.5185155],[9.2822861,47.5206844],[9.2952969,47.5227516],[9.2962941,47.5245141],[9.3013616,47.5241226],[9.3027458,47.5264322],[9.3083653,47.5253886],[9.3127646,47.5221336],[9.3136789,47.5247579],[9.3123318,47.5275667],[9.3165983,47.5286971],[9.3153342,47.5302627],[9.3184811,47.5317047],[9.3229206,47.5319265],[9.3241352,47.5292912],[9.3287484,47.5283965],[9.3296676,47.5296481],[9.3382894,47.5288758],[9.339572,47.531455],[9.3401946,47.5264302],[9.3389825,47.524857],[9.3438106,47.5199723],[9.3563952,47.5195004],[9.3546579,47.5153492],[9.3504685,47.5154072],[9.3457669,47.511849],[9.3484967,47.5112532],[9.3461618,47.5080217],[9.3443072,47.5082828],[9.3432663,47.5064397],[9.3382993,47.5068369],[9.3369147,47.5012833],[9.3417981,47.5037224],[9.3559026,47.5008718],[9.3560896,47.5034155],[9.3740388,47.5003867],[9.3740695,47.4953604],[9.3689046,47.4940298],[9.3684346,47.4920822],[9.3727856,47.490464],[9.3665204,47.4854604],[9.3808231,47.4873097],[9.3796002,47.4854753],[9.3887828,47.4815637],[9.3915449,47.4788673],[9.3911542,47.4773316],[9.3969824,47.4749806],[9.3963543,47.4778336],[9.3993032,47.4779255],[9.401195,47.4807878],[9.4003474,47.4826483],[9.4020757,47.4849989],[9.4004199,47.4860971],[9.403586,47.4876046],[9.4064974,47.4940636],[9.4095635,47.493387],[9.4135282,47.4975264],[9.4173442,47.4980568],[9.4212725,47.4961761],[9.4251069,47.5015032],[9.435993,47.5066787],[9.502768,47.5472144],[9.4529335,47.5901961],[9.4451294,47.5948297],[9.2677011,47.6562374],[9.2558169,47.6591228],[9.2025008,47.6554655],[9.1870827,47.65748],[9.1759711,47.6539842],[9.1754922,47.6557733],[9.1703454,47.655005],[9.1578392,47.6657631],[9.151443,47.6673908],[9.1380676,47.6644837],[9.1166599,47.6691969],[9.1004308,47.6774179],[9.0635578,47.6802963],[9.0237184,47.6865403],[9.010899,47.6841508],[8.984669,47.6754176],[8.9656709,47.6655222],[8.947978,47.6605184],[8.940898,47.655933],[8.9288939,47.6551433],[8.8978336,47.6478471],[8.882736,47.6540803],[8.8724425,47.653965],[8.8670016,47.6560242],[8.8611179,47.6542656],[8.8579452,47.6500815],[8.8493792,47.6510084],[8.8456294,47.6530649],[8.8545607,47.6606775],[8.8413351,47.6645522],[8.8385747,47.6700658],[8.8304263,47.6745157],[8.8168889,47.6778064],[8.8089381,47.6768424],[8.8043146,47.6783477],[8.7972209,47.6755749],[8.788611,47.6755009],[8.774914,47.680621],[8.7659218,47.6865575],[8.7509126,47.6908136],[8.7264812,47.692778],[8.7140873,47.6895216],[8.7078369,47.6895076],[8.690163,47.6954183],[8.6786258,47.6877191],[8.6694179,47.6848935],[8.6679731,47.6771404]],[[9.3534873,47.5113578],[9.3568941,47.5118839],[9.3590917,47.5105357],[9.358528,47.5085599],[9.3546048,47.5093815],[9.3534873,47.5113578]]],[[[9.4480844,47.4980224],[9.4503645,47.4969934],[9.4481643,47.4936146],[9.4536761,47.4916536],[9.4530202,47.4900181],[9.4657269,47.4880155],[9.4644643,47.4841796],[9.4769713,47.4896541],[9.4662244,47.4962919],[9.4494144,47.5014172],[9.4480844,47.4980224]]]]}, "properties": {"osm_id": -1693811, "boundary": "administrative", "admin_level": 4, "parents": "-51701", "name": "Thurgau", "local_name": "Thurgau", "name_en": "Thurgau"}}, {"type": "Feature", "geometry": {"type":"MultiPolygon","coordinates":[[[[8.7956118,47.2396694],[8.8103172,47.2185246],[8.8216503,47.2119174],[8.833504,47.2087961],[8.8483404,47.2084866],[8.9367221,47.2179437],[8.9558215,47.2162724],[8.9699548,47.2170932],[8.9742922,47.212803],[8.9692112,47.2118298],[8.9653289,47.198162],[8.957481,47.199442],[8.9619751,47.1794623],[8.970359,47.1788068],[8.9739579,47.1822885],[8.9802549,47.1833187],[8.995498,47.1788824],[8.9975864,47.1778545],[8.9963427,47.1765244],[9.0055892,47.1739901],[9.0681196,47.1299701],[9.1012291,47.1332506],[9.1081088,47.1313214],[9.1154179,47.1327527],[9.1359131,47.13198],[9.1476938,47.1289174],[9.1898696,47.1236999],[9.1886283,47.1152313],[9.190011,47.1099206],[9.1862452,47.1000098],[9.1876371,47.093817],[9.1894293,47.090886],[9.1912225,47.0909614],[9.1887798,47.0854796],[9.1906239,47.0739477],[9.1920237,47.0735213],[9.1902906,47.0698927],[9.1852521,47.0642343],[9.1837458,47.0596278],[9.1745272,47.0529263],[9.1713295,47.0525696],[9.167394,47.0494002],[9.1533535,47.0472727],[9.1380588,47.0391352],[9.1656639,47.0268807],[9.1695902,47.0266309],[9.175206,47.0288079],[9.180518,47.0259225],[9.2016527,47.0351215],[9.2089667,47.0357312],[9.2145001,47.0330615],[9.2219354,47.0325835],[9.2300394,47.0258199],[9.2363488,47.0239832],[9.2366431,47.0217942],[9.2428136,47.0148943],[9.2433458,47.0059632],[9.2497229,46.9978232],[9.2498737,46.9952145],[9.2455505,46.9921988],[9.2465684,46.9870345],[9.2436286,46.9823776],[9.2465345,46.9787471],[9.246798,46.975641],[9.2427356,46.9657885],[9.2460639,46.9587474],[9.2447029,46.9564677],[9.2367496,46.9545665],[9.2362814,46.9454943],[9.2397745,46.9407713],[9.2391284,46.9393859],[9.2502545,46.9346294],[9.2525772,46.9270313],[9.2502246,46.9241704],[9.2515088,46.9220867],[9.2488156,46.9163011],[9.2543512,46.9132325],[9.2574883,46.9083978],[9.2672303,46.903148],[9.2768935,46.9073488],[9.2869138,46.9050623],[9.2933008,46.9070865],[9.3099293,46.9057655],[9.3176212,46.9012315],[9.321897,46.9005987],[9.3386677,46.9020295],[9.3431302,46.8982857],[9.3470318,46.8996724],[9.3655032,46.8969199],[9.3816947,46.8976333],[9.3994124,46.8921324],[9.4135233,46.8912556],[9.4330911,46.8846649],[9.4378018,46.8797379],[9.4488629,46.8728865],[9.45254,46.874617],[9.4557827,46.8802558],[9.4542546,46.8860551],[9.4660476,46.8858961],[9.4677663,46.8872694],[9.4697363,46.8914727],[9.467249,46.8998878],[9.4710062,46.9014202],[9.4754217,46.9064212],[9.4822737,46.9082093],[9.4879923,46.9122928],[9.4785736,46.9156817],[9.4777845,46.9205665],[9.4804315,46.9259786],[9.4857178,46.9303797],[9.4865233,46.935524],[9.4937076,46.937716],[9.4928638,46.9392167],[9.4960992,46.9403374],[9.4985722,46.9470328],[9.5002045,46.9495933],[9.5031514,46.9494749],[9.5045972,46.9536684],[9.5184771,46.955862],[9.5186979,46.9650978],[9.5173055,46.967447],[9.5189416,46.9703551],[9.5290956,46.9739813],[9.5412247,46.9742934],[9.5455732,46.9765687],[9.5115612,47.0080547],[9.5060619,47.0186885],[9.4772452,47.049055],[9.4717767,47.0615162],[9.4718614,47.0642006],[9.4740884,47.0663892],[9.4922746,47.073844],[9.5135292,47.0856362],[9.5195806,47.0983373],[9.5123851,47.1303024],[9.5081841,47.1407276],[9.4997225,47.1497721],[9.4906624,47.1644987],[9.4858412,47.1814434],[9.4897548,47.1964945],[9.4996332,47.2113569],[9.5035029,47.2235074],[9.5204517,47.2439624],[9.5301131,47.2624922],[9.5310481,47.2711259],[9.5461797,47.2800301],[9.5513322,47.2867942],[9.5565198,47.2984176],[9.5814429,47.3110644],[9.5882928,47.317549],[9.6007126,47.3469074],[9.6244598,47.3661451],[9.6262729,47.3650807],[9.6353723,47.3673698],[9.6505343,47.3675416],[9.6624091,47.3710805],[9.6731406,47.3810655],[9.6740824,47.3901488],[9.6718499,47.3930607],[9.6600883,47.3975456],[9.6543745,47.4043994],[9.6516178,47.404626],[9.6504423,47.4204335],[9.6443633,47.4358537],[9.6473516,47.440331],[9.6579866,47.4477909],[9.6587277,47.4524576],[9.6458081,47.4556356],[9.6223413,47.457472],[9.6169671,47.4619427],[9.6117717,47.4692689],[9.609044,47.4705422],[9.6066372,47.4698438],[9.6035991,47.462373],[9.5958388,47.4628414],[9.5816705,47.4832853],[9.5650344,47.4928774],[9.562202,47.4959175],[9.5617745,47.5044908],[9.550566,47.5371757],[9.5319082,47.5357151],[9.5146841,47.5369248],[9.502768,47.5472144],[9.435993,47.5066787],[9.4251069,47.5015032],[9.4212725,47.4961761],[9.4173442,47.4980568],[9.4135282,47.4975264],[9.4095635,47.493387],[9.4064974,47.4940636],[9.403586,47.4876046],[9.4004199,47.4860971],[9.4020757,47.4849989],[9.4003474,47.4826483],[9.401195,47.4807878],[9.3993032,47.4779255],[9.3963543,47.4778336],[9.3969824,47.4749806],[9.3911542,47.4773316],[9.3915449,47.4788673],[9.3887828,47.4815637],[9.3796002,47.4854753],[9.3808231,47.4873097],[9.3665204,47.4854604],[9.3727856,47.490464],[9.3684346,47.4920822],[9.3689046,47.4940298],[9.3740695,47.4953604],[9.3740388,47.5003867],[9.3560896,47.5034155],[9.3559026,47.5008718],[9.3417981,47.5037224],[9.3369147,47.5012833],[9.3382993,47.5068369],[9.3432663,47.5064397],[9.3443072,47.5082828],[9.3461618,47.5080217],[9.3484967,47.5112532],[9.3457669,47.511849],[9.3504685,47.5154072],[9.3546579,47.5153492],[9.3563952,47.5195004],[9.3438106,47.5199723],[9.3389825,47.524857],[9.3401946,47.5264302],[9.339572,47.531455],[9.3382894,47.5288758],[9.3296676,47.5296481],[9.3287484,47.5283965],[9.3241352,47.5292912],[9.3229206,47.5319265],[9.3184811,47.5317047],[9.3153342,47.5302627],[9.3165983,47.5286971],[9.3123318,47.5275667],[9.3136789,47.5247579],[9.3127646,47.5221336],[9.3083653,47.5253886],[9.3027458,47.5264322],[9.3013616,47.5241226],[9.2962941,47.5245141],[9.2952969,47.5227516],[9.2822861,47.5206844],[9.2848198,47.5185155],[9.2826656,47.5146506],[9.2794727,47.5139777],[9.280356,47.510081],[9.2783386,47.5100797],[9.2753857,47.5131558],[9.2687617,47.5116691],[9.2715652,47.5078357],[9.2745112,47.5068044],[9.2810026,47.5056901],[9.2863927,47.5076347],[9.29156,47.5066644],[9.2953431,47.5096195],[9.2977276,47.5091702],[9.2993608,47.5120963],[9.3025769,47.5123433],[9.3032767,47.5135957],[9.3019243,47.5141207],[9.3033517,47.5156622],[9.3116673,47.5103558],[9.3166065,47.509596],[9.3150427,47.5068893],[9.310149,47.5076413],[9.3083954,47.5052947],[9.3092278,47.5006916],[9.3081249,47.4982298],[9.317247,47.5005128],[9.3200311,47.4971416],[9.3192777,47.4937994],[9.3208334,47.491096],[9.3164486,47.4889009],[9.3151352,47.486318],[9.3090376,47.4842369],[9.3084583,47.4819944],[9.2986449,47.4772327],[9.2877859,47.4799469],[9.2869872,47.4822346],[9.2811768,47.4830722],[9.2783593,47.4793971],[9.2635322,47.4746689],[9.2522601,47.4756094],[9.2511535,47.4744953],[9.2470467,47.4758303],[9.2445998,47.4802837],[9.237915,47.4817564],[9.2321982,47.4810574],[9.2323141,47.4832339],[9.2247012,47.4845577],[9.2182845,47.4838123],[9.2146329,47.4819149],[9.2131888,47.4789088],[9.2089576,47.4801744],[9.2098438,47.4820022],[9.2063698,47.4824775],[9.2078815,47.4832101],[9.2064,47.4866805],[9.2098857,47.4893269],[9.19877,47.4889782],[9.1967448,47.4905185],[9.193063,47.4889388],[9.1933709,47.4912201],[9.1887775,47.4931076],[9.182856,47.4913451],[9.1809939,47.4973722],[9.1775409,47.4970347],[9.1785964,47.4960777],[9.1774174,47.494847],[9.1737101,47.4945147],[9.1691694,47.4983058],[9.1719586,47.5033236],[9.1692107,47.5039988],[9.1680111,47.5012771],[9.165868,47.5040821],[9.1607182,47.4999861],[9.16259,47.4965015],[9.1586202,47.4898767],[9.1553895,47.4876569],[9.1484881,47.4871301],[9.1420247,47.4843962],[9.1372563,47.4857898],[9.1254005,47.4841481],[9.1240464,47.4836463],[9.12413,47.4813585],[9.1181242,47.4797094],[9.1159947,47.4797329],[9.1144144,47.482945],[9.1124542,47.4831785],[9.1128473,47.4844177],[9.0985481,47.4856069],[9.0977442,47.4838949],[9.0898588,47.4827714],[9.0863801,47.4883026],[9.0835952,47.4890379],[9.0850855,47.49024],[9.082355,47.4952392],[9.0644384,47.4908198],[9.0626472,47.492467],[9.0584867,47.4901622],[9.0592111,47.488339],[9.0558181,47.4874132],[9.0540313,47.4897057],[9.0515399,47.4898865],[9.0500416,47.4916299],[9.0510873,47.4921803],[9.0442147,47.4927986],[9.0420862,47.4957928],[9.0402759,47.495765],[9.0410512,47.4947278],[9.0360297,47.4914376],[9.0351149,47.492193],[9.0283087,47.4886722],[9.0262623,47.4900764],[9.0201957,47.4882762],[9.017442,47.4901024],[9.0124778,47.4899739],[9.0102094,47.487746],[9.011586,47.4868568],[9.010783,47.4854659],[9.0067612,47.484201],[9.0036577,47.4809489],[9.0087899,47.4797543],[9.00873,47.4757936],[9.0119666,47.4753471],[9.008213,47.4723692],[9.029486,47.4666606],[9.02848,47.4637401],[9.0307268,47.4617914],[9.0264127,47.4601448],[9.0272279,47.4577402],[9.0503633,47.4528613],[9.0543253,47.4505763],[9.0545843,47.4485273],[9.0625474,47.4462445],[9.0601856,47.444979],[9.0603728,47.4433246],[9.0516949,47.4441768],[9.0530133,47.4425594],[9.0474581,47.4442335],[9.0473762,47.442857],[9.0451,47.4429075],[9.0462637,47.4416589],[9.0450792,47.440692],[9.045248,47.4417084],[9.0426749,47.4401434],[9.0380946,47.4414518],[9.0381874,47.4398421],[9.0366173,47.4395057],[9.0383127,47.4371253],[9.0340059,47.4354802],[9.0368117,47.4375581],[9.0350094,47.4392514],[9.0332933,47.4399302],[9.0316051,47.4376262],[9.0264673,47.4372291],[9.0221498,47.4416775],[9.0196472,47.4403286],[9.0187431,47.4367688],[9.0119739,47.4334613],[9.0101063,47.4352835],[9.0032879,47.4339771],[8.9991956,47.4351054],[8.9998545,47.4321388],[8.9942766,47.4298368],[8.9874682,47.429708],[8.9908141,47.4281114],[8.9894475,47.4249681],[8.994243,47.4223356],[8.9911545,47.4208994],[8.9892799,47.4142418],[8.9904293,47.4138382],[8.9887235,47.4112635],[8.9817893,47.4124905],[8.9765723,47.4106732],[8.972173,47.4043237],[8.9756919,47.3993349],[8.9714795,47.3912881],[8.9674456,47.3904765],[8.9659221,47.3853216],[8.9574396,47.3864331],[8.9549229,47.3814842],[8.9447596,47.378009],[8.9435245,47.375917],[8.9481365,47.374746],[8.9512944,47.371691],[8.9523828,47.3671158],[8.9604996,47.3557395],[8.9602841,47.3537015],[8.967416,47.3542763],[8.9718042,47.3525259],[8.97441,47.3473753],[8.9730871,47.3398755],[8.9792825,47.3379492],[8.9772706,47.3325126],[8.9774689,47.3270595],[8.9849407,47.3193894],[8.9749561,47.3070338],[8.95759,47.304766],[8.9490168,47.294419],[8.9488993,47.2921721],[8.9337129,47.288308],[8.9405673,47.2843651],[8.9414336,47.279868],[8.9436493,47.2795965],[8.9456222,47.2820407],[8.9488186,47.2809429],[8.9471354,47.2749456],[8.9408962,47.2716671],[8.9444545,47.2694976],[8.9429323,47.2673876],[8.9402973,47.2673499],[8.9407182,47.2655377],[8.935879,47.2619131],[8.9370636,47.2612321],[8.9330965,47.2588875],[8.9290836,47.2600489],[8.9091787,47.254469],[8.9082928,47.2567459],[8.8917003,47.2533779],[8.8734875,47.2519915],[8.8737567,47.2476646],[8.8666011,47.2439643],[8.8607012,47.2432647],[8.8552301,47.2443862],[8.8525178,47.2468754],[8.8517105,47.2511189],[8.8447361,47.2486275],[8.8447163,47.2469762],[8.8418563,47.246915],[8.8376566,47.2470301],[8.8346486,47.249373],[8.8268124,47.2515126],[8.821562,47.2507657],[8.8025031,47.2466728],[8.802608,47.2449857],[8.7992694,47.2421151],[8.7965168,47.2425245],[8.7956118,47.2396694]],[[9.1910895,47.3625476],[9.1991204,47.3614442],[9.2101624,47.3630544],[9.2130315,47.3651233],[9.2132179,47.3682362],[9.2173991,47.3703322],[9.2186667,47.3729862],[9.2209942,47.3732512],[9.2197802,47.3767857],[9.2220035,47.3782935],[9.218727,47.3847632],[9.2230574,47.3876457],[9.2318246,47.3877764],[9.233153,47.390357],[9.2325837,47.3945231],[9.2304882,47.3970184],[9.2325729,47.3980227],[9.2329279,47.3960217],[9.2347498,47.3971236],[9.2361544,47.3961575],[9.2518904,47.4007169],[9.2560396,47.4008675],[9.2575409,47.3987365],[9.26473,47.4012486],[9.2693527,47.3993099],[9.2718694,47.4010325],[9.2789408,47.3996327],[9.2794082,47.3982457],[9.2891744,47.3980579],[9.3019812,47.3951582],[9.3183494,47.3973431],[9.3274958,47.4012112],[9.3360402,47.3991316],[9.3543338,47.4034226],[9.3585664,47.4020451],[9.3716713,47.4077137],[9.3869225,47.4056082],[9.3896505,47.4045676],[9.3919246,47.4012712],[9.3974392,47.4005885],[9.4092287,47.402552],[9.4131925,47.4055489],[9.4246107,47.406834],[9.4298817,47.4096175],[9.4278722,47.4104565],[9.4286318,47.41271],[9.430534,47.4114973],[9.4329648,47.413974],[9.42997,47.4178382],[9.4350303,47.4208373],[9.4347172,47.426428],[9.4325148,47.4295162],[9.4350022,47.4342941],[9.4441854,47.4340507],[9.45266,47.431069],[9.4530991,47.432687],[9.4639304,47.4352815],[9.4697002,47.4386779],[9.480418,47.4389664],[9.4950946,47.4423025],[9.5035951,47.4454185],[9.5083931,47.449223],[9.5142201,47.4493151],[9.5188373,47.4517105],[9.5239391,47.4513674],[9.526411,47.4534852],[9.5305144,47.4534564],[9.5274563,47.4564827],[9.5256393,47.4613683],[9.5325141,47.4678475],[9.5432965,47.4689018],[9.5471906,47.4670029],[9.5464296,47.4630145],[9.557192,47.4648626],[9.5620391,47.462925],[9.5805866,47.46258],[9.5887797,47.4596574],[9.5892606,47.4574087],[9.5959942,47.4586674],[9.5969176,47.4565439],[9.6046641,47.4523818],[9.614417,47.4483372],[9.6205569,47.4479001],[9.6297047,47.4443683],[9.6309631,47.4422448],[9.6297387,47.4398395],[9.6178293,47.4376767],[9.6183988,47.4365581],[9.6089093,47.4335378],[9.6073476,47.4316602],[9.5882481,47.4254282],[9.5896881,47.4208926],[9.6045715,47.4140141],[9.5837552,47.4099458],[9.5744237,47.4056313],[9.576425,47.4041898],[9.5678802,47.4018583],[9.5641679,47.3987145],[9.5553009,47.3967851],[9.551623,47.3934234],[9.5431753,47.395008],[9.5453531,47.398459],[9.5425728,47.4002683],[9.5090682,47.3945922],[9.5041946,47.3883984],[9.5041991,47.3843575],[9.5026087,47.3840338],[9.5041377,47.3826203],[9.5030294,47.3749918],[9.5054013,47.3744593],[9.498999,47.3693339],[9.5010738,47.3681293],[9.4988551,47.3635565],[9.5004777,47.3626975],[9.4989679,47.3616818],[9.50103,47.3608648],[9.5000022,47.3600622],[9.5031212,47.350865],[9.5021609,47.329712],[9.5003139,47.3295003],[9.5011357,47.3281814],[9.4997688,47.3273075],[9.4981347,47.3182123],[9.4925088,47.3129045],[9.4962566,47.3060143],[9.4888633,47.3018008],[9.4905415,47.2995037],[9.4868382,47.2907174],[9.4877576,47.2882911],[9.4849864,47.2837518],[9.4807862,47.2815011],[9.4729388,47.2712137],[9.4511046,47.2600312],[9.4471614,47.2558054],[9.4396554,47.2529154],[9.4377933,47.2507284],[9.4332398,47.2504554],[9.4262286,47.2471097],[9.4147975,47.2465341],[9.401922,47.2375609],[9.3820067,47.2339966],[9.3648794,47.2433131],[9.3509943,47.2443642],[9.3436804,47.247746],[9.3432648,47.2493986],[9.332349,47.2496108],[9.3237955,47.2470247],[9.3186333,47.2478785],[9.3143834,47.252149],[9.3078465,47.2553029],[9.3089731,47.2580033],[9.3079717,47.2596102],[9.2971672,47.2574146],[9.2931368,47.2603955],[9.2897058,47.2603333],[9.2840881,47.2656574],[9.275098,47.265745],[9.2790912,47.2666754],[9.2737679,47.270011],[9.2648252,47.2676242],[9.2573198,47.2632264],[9.2474909,47.2660802],[9.2387854,47.2646466],[9.2173379,47.2706747],[9.206251,47.2763964],[9.2082109,47.2801428],[9.2170978,47.2845078],[9.2223542,47.2894867],[9.2218653,47.2916573],[9.2243136,47.2928769],[9.2197063,47.2985709],[9.2170451,47.2996954],[9.2159866,47.3025133],[9.2177861,47.3078962],[9.2142627,47.3132693],[9.2130053,47.3197025],[9.2098256,47.3209017],[9.2333058,47.3322059],[9.2249389,47.3423784],[9.2223185,47.3433413],[9.2062825,47.3391337],[9.2056841,47.3423043],[9.1986374,47.3477824],[9.2074649,47.3561075],[9.2047196,47.3576094],[9.2039936,47.356102],[9.1956179,47.3534664],[9.1943859,47.3589583],[9.1910895,47.3625476]],[[9.4480844,47.4980224],[9.4494144,47.5014172],[9.4662244,47.4962919],[9.4769713,47.4896541],[9.4644643,47.4841796],[9.4657269,47.4880155],[9.4530202,47.4900181],[9.4536761,47.4916536],[9.4481643,47.4936146],[9.4503645,47.4969934],[9.4480844,47.4980224]]],[[[9.3534873,47.5113578],[9.3546048,47.5093815],[9.358528,47.5085599],[9.3590917,47.5105357],[9.3568941,47.5118839],[9.3534873,47.5113578]]]]}, "properties": {"osm_id": -1687006, "boundary": "administrative", "admin_level": 4, "parents": "-51701", "name": "St. Gallen", "local_name": "St. Gallen", "name_en": "St. Gallen"}}, {"type": "Feature", "geometry": {"type":"MultiPolygon","coordinates":[[[[9.3097134,47.3218862],[9.3139967,47.3215032],[9.3169994,47.3161045],[9.3154436,47.3153165],[9.3155411,47.3132144],[9.3183094,47.30953],[9.3149542,47.3062533],[9.3171045,47.3017459],[9.313014,47.2961485],[9.3135572,47.2914487],[9.3236182,47.282909],[9.3327453,47.2699579],[9.3341238,47.2627264],[9.3435275,47.2479033],[9.3512709,47.2443047],[9.3648794,47.2433131],[9.3820067,47.2339966],[9.4024327,47.2376899],[9.4147975,47.2465341],[9.4262286,47.2471097],[9.4332398,47.2504554],[9.4377933,47.2507284],[9.4396554,47.2529154],[9.4471614,47.2558054],[9.4511046,47.2600312],[9.4729388,47.2712137],[9.4877576,47.2882911],[9.4868382,47.2907174],[9.4906839,47.3007687],[9.4888633,47.3018008],[9.4962566,47.3060143],[9.4925088,47.3129045],[9.4981347,47.3182123],[9.4997688,47.3273075],[9.5011357,47.3281814],[9.5003139,47.3295003],[9.5021609,47.329712],[9.5029095,47.3474363],[9.4871427,47.350256],[9.4792318,47.3472095],[9.4657469,47.3464248],[9.4447766,47.3569671],[9.4379317,47.356506],[9.4306463,47.3671112],[9.4309411,47.3708694],[9.4226527,47.368044],[9.4192871,47.369638],[9.4118851,47.3687673],[9.4032051,47.3734073],[9.4018968,47.3755072],[9.4035087,47.37608],[9.4004367,47.3771056],[9.4010475,47.3783348],[9.3988829,47.3773701],[9.3936241,47.3802445],[9.3903973,47.3776616],[9.3861639,47.3770579],[9.3855351,47.3792073],[9.3781245,47.3808161],[9.3790644,47.3867679],[9.3731643,47.3863887],[9.3718408,47.3840043],[9.3588564,47.3851382],[9.3565392,47.3833888],[9.3502705,47.3830428],[9.3587233,47.3781326],[9.3595236,47.3733599],[9.3569378,47.371335],[9.3593496,47.3669512],[9.3614062,47.3665464],[9.3604011,47.3639997],[9.365328,47.3583264],[9.3436679,47.3521817],[9.3432159,47.3501972],[9.3462312,47.3449528],[9.3393797,47.3438584],[9.3333843,47.3407786],[9.3289566,47.330817],[9.3112765,47.3251207],[9.3097134,47.3218862]]],[[[9.3617454,47.3863763],[9.3627347,47.3860132],[9.3632225,47.386403],[9.3624272,47.3868519],[9.3617454,47.3863763]]],[[[9.5082047,47.3955131],[9.5188308,47.3957969],[9.5425728,47.4002683],[9.5453531,47.398459],[9.5431753,47.395008],[9.551623,47.3934234],[9.5552822,47.3964518],[9.5423863,47.4082052],[9.5512841,47.4099826],[9.5532295,47.4077414],[9.5626462,47.4085029],[9.5649132,47.4053042],[9.5704176,47.406387],[9.5737106,47.4073776],[9.5735082,47.4121083],[9.5721889,47.4131889],[9.5762487,47.4158275],[9.5588396,47.418277],[9.556029,47.4195437],[9.555789,47.4226112],[9.5540378,47.4233687],[9.5547501,47.4268391],[9.5485331,47.4277533],[9.5452907,47.4308235],[9.5389258,47.4317468],[9.5389821,47.427269],[9.537423,47.4257856],[9.523368,47.4214289],[9.5270665,47.4150099],[9.5229144,47.414],[9.5273512,47.4122075],[9.5278663,47.4103602],[9.5303251,47.4114858],[9.532731,47.4103278],[9.523142,47.4064703],[9.5164233,47.405641],[9.5107171,47.4024651],[9.5123069,47.3974924],[9.5082047,47.3955131]]],[[[9.5581203,47.4328242],[9.5624018,47.4290075],[9.5647904,47.4295723],[9.5692628,47.4276562],[9.5699224,47.4290505],[9.5719861,47.42659],[9.5753256,47.4257098],[9.5672947,47.4222995],[9.5683793,47.4210743],[9.5831603,47.4201403],[9.5816554,47.4151351],[9.5854636,47.4147384],[9.5858382,47.4130942],[9.580291,47.4105312],[9.5830575,47.4096418],[9.6047233,47.4141175],[9.5896881,47.4208926],[9.5882481,47.4254282],[9.6183988,47.4365581],[9.6178293,47.4376767],[9.6048659,47.4368052],[9.5932125,47.4339673],[9.5931457,47.4356271],[9.5793173,47.4336106],[9.5706259,47.4343432],[9.5687563,47.4385109],[9.5664248,47.438657],[9.5581203,47.4328242]]],[[[9.6120962,47.443387],[9.6129754,47.4431694],[9.6132728,47.4434387],[9.6131081,47.4436942],[9.6120962,47.443387]]]]}, "properties": {"osm_id": -1686666, "boundary": "administrative", "admin_level": 4, "parents": "-51701", "name": "Appenzell Innerrhoden", "local_name": "Appenzell Innerrhoden", "name_en": "Appenzell Innerrhoden"}}, {"type": "Feature", "geometry": {"type":"MultiPolygon","coordinates":[[[[9.1910895,47.3625476],[9.1943859,47.3589583],[9.1956179,47.3534664],[9.2039936,47.356102],[9.2047196,47.3576094],[9.2074649,47.3561075],[9.1986374,47.3477824],[9.2056841,47.3423043],[9.2062825,47.3391337],[9.2223185,47.3433413],[9.2249389,47.3423784],[9.2333058,47.3322059],[9.2098256,47.3209017],[9.2130053,47.3197025],[9.2142627,47.3132693],[9.2177861,47.3078962],[9.2159866,47.3025133],[9.2170451,47.2996954],[9.2197063,47.2985709],[9.2243136,47.2928769],[9.2218653,47.2916573],[9.2223542,47.2894867],[9.2170978,47.2845078],[9.2082109,47.2801428],[9.206251,47.2763964],[9.2173379,47.2706747],[9.2387854,47.2646466],[9.2474909,47.2660802],[9.2573198,47.2632264],[9.2648252,47.2676242],[9.2737679,47.270011],[9.2790912,47.2666754],[9.275098,47.265745],[9.2840881,47.2656574],[9.2897058,47.2603333],[9.2931368,47.2603955],[9.2971672,47.2574146],[9.3079717,47.2596102],[9.3089731,47.2580033],[9.3078465,47.2553029],[9.3143834,47.252149],[9.3186333,47.2478785],[9.3237955,47.2470247],[9.332349,47.2496108],[9.3432648,47.2493986],[9.3341238,47.2627264],[9.3327453,47.2699579],[9.3236182,47.282909],[9.3135572,47.2914487],[9.313014,47.2961485],[9.3171045,47.3017459],[9.3149542,47.3062533],[9.3183094,47.30953],[9.3155411,47.3132144],[9.3154436,47.3153165],[9.3169994,47.3161045],[9.3139967,47.3215032],[9.3097134,47.3218862],[9.3112765,47.3251207],[9.3289566,47.330817],[9.3333843,47.3407786],[9.3393797,47.3438584],[9.3462312,47.3449528],[9.3432159,47.3501972],[9.3436679,47.3521817],[9.365328,47.3583264],[9.3604011,47.3639997],[9.3614062,47.3665464],[9.3593496,47.3669512],[9.3569378,47.371335],[9.3595236,47.3733599],[9.3587233,47.3781326],[9.3502705,47.3830428],[9.3565392,47.3833888],[9.3588564,47.3851382],[9.3718408,47.3840043],[9.3731643,47.3863887],[9.3790644,47.3867679],[9.3781245,47.3808161],[9.3855351,47.3792073],[9.3861639,47.3770579],[9.3903973,47.3776616],[9.3936241,47.3802445],[9.3988829,47.3773701],[9.4010475,47.3783348],[9.4004367,47.3771056],[9.4035087,47.37608],[9.4018968,47.3755072],[9.4032051,47.3734073],[9.4118851,47.3687673],[9.4192871,47.369638],[9.4226527,47.368044],[9.4309411,47.3708694],[9.4306463,47.3671112],[9.4379317,47.356506],[9.4447766,47.3569671],[9.4657469,47.3464248],[9.4792318,47.3472095],[9.4871427,47.350256],[9.5029095,47.3474363],[9.5026337,47.35382],[9.5000022,47.3600622],[9.50103,47.3608648],[9.4989679,47.3616818],[9.5004777,47.3626975],[9.4988551,47.3635565],[9.5010738,47.3681293],[9.498999,47.3693339],[9.5054013,47.3744593],[9.5030294,47.3749918],[9.5041377,47.3826203],[9.5026087,47.3840338],[9.5041991,47.3843575],[9.5041946,47.3883984],[9.5095577,47.3946992],[9.5082665,47.3956269],[9.5123069,47.3974924],[9.5107171,47.4024651],[9.5329053,47.4106728],[9.5278663,47.4103602],[9.5273512,47.4122075],[9.5229144,47.414],[9.5270665,47.4150099],[9.523368,47.4214289],[9.537423,47.4257856],[9.5389821,47.427269],[9.5389258,47.4317468],[9.5410629,47.4318472],[9.5456822,47.4306925],[9.5485331,47.4277533],[9.5547501,47.4268391],[9.5540378,47.4233687],[9.555789,47.4226112],[9.5569514,47.4190872],[9.5633535,47.4185396],[9.564963,47.4165281],[9.5762487,47.4158275],[9.5721889,47.4131889],[9.5735082,47.4121083],[9.5737106,47.4073776],[9.5704176,47.406387],[9.5649132,47.4053042],[9.5626462,47.4085029],[9.5532295,47.4077414],[9.5512841,47.4099826],[9.5423863,47.4082052],[9.5458524,47.406292],[9.5511019,47.3991206],[9.5565439,47.3963425],[9.5611983,47.3990169],[9.5641679,47.3987145],[9.5733141,47.4041148],[9.576425,47.4041898],[9.5744237,47.4056313],[9.5829443,47.4089039],[9.580291,47.4105312],[9.5858382,47.4130942],[9.5854636,47.4147384],[9.5816554,47.4151351],[9.5831603,47.4201403],[9.5689044,47.4209097],[9.5672947,47.4222995],[9.5753256,47.4257098],[9.5719861,47.42659],[9.5699224,47.4290505],[9.5692628,47.4276562],[9.5647904,47.4295723],[9.5624018,47.4290075],[9.5614081,47.4309768],[9.5585336,47.4317425],[9.5588295,47.4339696],[9.5649498,47.4367978],[9.5645629,47.4381309],[9.5687101,47.4385488],[9.5706259,47.4343432],[9.5793173,47.4336106],[9.5931457,47.4356271],[9.5932125,47.4339673],[9.6048659,47.4368052],[9.6230872,47.4382683],[9.6297387,47.4398395],[9.6309631,47.4422448],[9.6297047,47.4443683],[9.6205569,47.4479001],[9.614417,47.4483372],[9.6046641,47.4523818],[9.5969176,47.4565439],[9.5959942,47.4586674],[9.5892606,47.4574087],[9.5887797,47.4596574],[9.5805866,47.46258],[9.5620391,47.462925],[9.557192,47.4648626],[9.5464296,47.4630145],[9.5471906,47.4670029],[9.5432965,47.4689018],[9.5325141,47.4678475],[9.5256393,47.4613683],[9.5274563,47.4564827],[9.5305144,47.4534564],[9.526411,47.4534852],[9.5239391,47.4513674],[9.5188373,47.4517105],[9.5142201,47.4493151],[9.5083931,47.449223],[9.5035951,47.4454185],[9.4950946,47.4423025],[9.480418,47.4389664],[9.4697002,47.4386779],[9.4639304,47.4352815],[9.4530991,47.432687],[9.45266,47.431069],[9.4441854,47.4340507],[9.4350022,47.4342941],[9.4325148,47.4295162],[9.4347172,47.426428],[9.4350303,47.4208373],[9.42997,47.4178382],[9.4329648,47.413974],[9.430534,47.4114973],[9.4286318,47.41271],[9.4278722,47.4104565],[9.4298817,47.4096175],[9.4246107,47.406834],[9.4131925,47.4055489],[9.4092287,47.402552],[9.3974392,47.4005885],[9.3919246,47.4012712],[9.3896505,47.4045676],[9.3869225,47.4056082],[9.3716713,47.4077137],[9.3585664,47.4020451],[9.3543338,47.4034226],[9.3360402,47.3991316],[9.3274958,47.4012112],[9.3183494,47.3973431],[9.3019812,47.3951582],[9.2891744,47.3980579],[9.2794082,47.3982457],[9.2789408,47.3996327],[9.2718694,47.4010325],[9.2693527,47.3993099],[9.26473,47.4012486],[9.2575409,47.3987365],[9.2560396,47.4008675],[9.2518904,47.4007169],[9.2361544,47.3961575],[9.2347498,47.3971236],[9.2329279,47.3960217],[9.2325729,47.3980227],[9.2304882,47.3970184],[9.2325837,47.3945231],[9.233153,47.390357],[9.2318246,47.3877764],[9.2230574,47.3876457],[9.218727,47.3847632],[9.2220035,47.3782935],[9.2197802,47.3767857],[9.2209942,47.3732512],[9.2186667,47.3729862],[9.2173991,47.3703322],[9.2132179,47.3682362],[9.2130315,47.3651233],[9.2101624,47.3630544],[9.1991204,47.3614442],[9.1910895,47.3625476]],[[9.3617454,47.3863763],[9.3624272,47.3868519],[9.3632225,47.386403],[9.3627347,47.3860132],[9.3617454,47.3863763]],[[9.6120962,47.443387],[9.6131081,47.4436942],[9.6132728,47.4434387],[9.6129754,47.4431694],[9.6120962,47.443387]]]]}, "properties": {"osm_id": -1686649, "boundary": "administrative", "admin_level": 4, "parents": "-51701", "name": "Appenzell Ausserrhoden", "local_name": "Appenzell Ausserrhoden", "name_en": "Appenzell Ausserrhoden"}}, {"type": "Feature", "geometry": {"type":"MultiPolygon","coordinates":[[[[8.6510632,46.6345886],[8.6565822,46.63133],[8.6579548,46.6261641],[8.6638793,46.6231287],[8.6640216,46.6216827],[8.6713394,46.6196114],[8.6766766,46.6199699],[8.6787447,46.6159962],[8.677749,46.6093638],[8.6796329,46.6056207],[8.6767201,46.5993759],[8.6806097,46.5950522],[8.6819216,46.5885324],[8.6787459,46.5791939],[8.6804191,46.5783898],[8.6856372,46.5804553],[8.6925706,46.5796712],[8.6983957,46.5810589],[8.704762,46.5771292],[8.7052943,46.5738006],[8.7170693,46.5711114],[8.727939,46.5770953],[8.7392026,46.5721648],[8.7439341,46.5722296],[8.7507414,46.5762205],[8.800737,46.5632845],[8.829672,46.5713718],[8.8317451,46.5639314],[8.8432303,46.5633603],[8.8539769,46.5695571],[8.8616535,46.5711393],[8.8629425,46.5730528],[8.8769496,46.5746733],[8.8794387,46.5776263],[8.8892941,46.5791618],[8.8939386,46.5819667],[8.9036713,46.584105],[8.9159748,46.5923552],[8.9153669,46.5958321],[8.9170807,46.5966068],[8.9071988,46.6062099],[8.905413,46.6120058],[8.9072906,46.6157128],[8.9106079,46.6167467],[8.9116884,46.6187933],[8.9186202,46.6198167],[8.923016,46.6230414],[8.941453,46.6184975],[8.9503716,46.6239725],[8.950849,46.629925],[8.9527813,46.6324883],[8.9578233,46.6298791],[8.9629961,46.6181481],[8.9596888,46.6107053],[8.9622012,46.6026448],[8.9660341,46.6037701],[8.9730889,46.6026657],[8.9837391,46.6088149],[8.9953467,46.6117344],[9.006238,46.6109491],[9.0162223,46.6032174],[9.0207923,46.603253],[9.0271873,46.599421],[9.0340908,46.6000269],[9.033528,46.5940956],[9.0428053,46.5888014],[9.0437501,46.5872507],[9.0422255,46.585363],[9.0438827,46.5833782],[9.037673,46.5823652],[9.0353884,46.5752122],[9.0298926,46.5713449],[9.0264769,46.5653834],[9.0266777,46.5618196],[9.0232208,46.5582492],[9.0246318,46.5553477],[9.0192405,46.5475494],[9.0229433,46.5378908],[9.0216298,46.5339502],[9.0166229,46.5320539],[9.017174,46.5290465],[9.0205771,46.5278206],[9.0206424,46.5235423],[9.0231479,46.5190942],[9.0220804,46.5122738],[9.0283888,46.5035987],[9.0371347,46.4982548],[9.04015,46.4939528],[9.0389633,46.4915719],[9.0402434,46.4895639],[9.0460832,46.4870738],[9.0478719,46.4836495],[9.0453379,46.4813592],[9.0466867,46.4805516],[9.0537615,46.4768877],[9.060544,46.4763071],[9.0735559,46.480272],[9.0854176,46.4754072],[9.085048,46.4709597],[9.0950675,46.4603963],[9.0920557,46.453299],[9.0920958,46.4488069],[9.0870058,46.4437003],[9.0895739,46.4369409],[9.0883803,46.4366128],[9.0890105,46.4321565],[9.0953993,46.4253276],[9.1030824,46.4127106],[9.1022563,46.4107707],[9.0922273,46.407635],[9.0899434,46.4054293],[9.0962141,46.3998768],[9.0912211,46.3957064],[9.0872532,46.3888356],[9.0914578,46.383606],[9.0956258,46.3730111],[9.0929495,46.3708335],[9.0944433,46.3640774],[9.0925867,46.357409],[9.0886983,46.352912],[9.0882669,46.3492032],[9.0819252,46.3490241],[9.0693098,46.3435686],[9.0695724,46.3411877],[9.0664394,46.3363686],[9.0697078,46.3324872],[9.0644429,46.3278755],[9.064326,46.3253779],[9.0725743,46.3188498],[9.0746887,46.31284],[9.0721757,46.3085709],[9.0679565,46.3071214],[9.0604777,46.2974012],[9.0540209,46.2948146],[9.0539166,46.292212],[9.0581221,46.2813045],[9.0622233,46.2777216],[9.0636392,46.2730621],[9.0722157,46.2677161],[9.0777614,46.2603043],[9.0760223,46.2378759],[9.0711394,46.2357539],[9.0745627,46.2317299],[9.0796046,46.2332847],[9.0868836,46.2142926],[9.0890524,46.2123805],[9.1112282,46.2049876],[9.1189988,46.2003896],[9.1310795,46.1883993],[9.1312981,46.1848138],[9.1355391,46.1803782],[9.1418556,46.1779391],[9.1533958,46.1701855],[9.1593659,46.1696185],[9.1698514,46.1718928],[9.1808306,46.1691798],[9.1839443,46.1706204],[9.1875323,46.1749873],[9.1946547,46.1791261],[9.1949208,46.1840112],[9.1980353,46.1869591],[9.1953268,46.1894492],[9.1948302,46.1936322],[9.1977134,46.1961361],[9.1976892,46.1993358],[9.20229,46.2084124],[9.2066863,46.2103725],[9.2142814,46.2107905],[9.2187392,46.2143674],[9.2198992,46.2205556],[9.2228723,46.2239831],[9.2210475,46.2292341],[9.2349227,46.2333588],[9.2458309,46.2321827],[9.2485896,46.2336989],[9.2496671,46.2446942],[9.2482055,46.247342],[9.2512989,46.2508515],[9.2490177,46.2558216],[9.2530481,46.2618925],[9.2518478,46.2657858],[9.250317,46.266316],[9.2569886,46.2693535],[9.2592548,46.2730458],[9.258759,46.2784458],[9.2682599,46.2821687],[9.2723523,46.2897184],[9.2848503,46.2970581],[9.2835118,46.3059191],[9.2815377,46.3093734],[9.2850517,46.3144399],[9.2938393,46.316573],[9.2958593,46.323617],[9.3001292,46.3266096],[9.2965814,46.3284718],[9.2923114,46.3345802],[9.2927172,46.3380155],[9.2998753,46.3435958],[9.296019,46.3491255],[9.2977779,46.3518545],[9.2962001,46.3556868],[9.2826897,46.3579986],[9.2787021,46.366634],[9.276062,46.3677761],[9.2771084,46.3719111],[9.2750661,46.3737132],[9.2777201,46.3750028],[9.2781845,46.3791945],[9.2803735,46.3797187],[9.2843742,46.3851927],[9.2785654,46.3894071],[9.2757961,46.394991],[9.2818637,46.4015285],[9.2788841,46.4033782],[9.2825256,46.4050881],[9.2799473,46.4146446],[9.2769096,46.415288],[9.2754532,46.4195178],[9.2728897,46.4201513],[9.2699973,46.4180711],[9.2636366,46.4205189],[9.2614835,46.424384],[9.2496466,46.4311536],[9.2482346,46.4332933],[9.2469833,46.4468066],[9.2522404,46.4493609],[9.2654765,46.451095],[9.2721573,46.4550922],[9.2780691,46.4614949],[9.274554,46.4630445],[9.2734199,46.4660052],[9.2773475,46.4791696],[9.2742019,46.483625],[9.2787427,46.4875718],[9.2788144,46.4916368],[9.2826942,46.4967631],[9.3045806,46.5008471],[9.310899,46.5040583],[9.3370633,46.5060053],[9.3390704,46.5038084],[9.3510964,46.5053857],[9.3551051,46.504286],[9.3623707,46.5095095],[9.368342,46.5051288],[9.3733498,46.5039614],[9.3731728,46.4991891],[9.3698088,46.4978308],[9.3684488,46.4942198],[9.3764055,46.4846799],[9.3852827,46.4823129],[9.385414,46.4804508],[9.3880986,46.4789849],[9.3897735,46.4730935],[9.4092944,46.4668403],[9.4134354,46.4671821],[9.4180989,46.4725514],[9.4240749,46.4761577],[9.4242461,46.4820786],[9.4263416,46.4857631],[9.4245756,46.4887017],[9.4341838,46.4979097],[9.4550605,46.5053257],[9.4585357,46.5083555],[9.4643284,46.508022],[9.4610555,46.5054919],[9.4626562,46.4980198],[9.4610397,46.4848517],[9.4490853,46.4843814],[9.4496915,46.4799851],[9.4628626,46.4805002],[9.4655789,46.4695051],[9.4635346,46.4657975],[9.4592771,46.4633058],[9.4586866,46.4570621],[9.4606971,46.4422811],[9.4574733,46.4371974],[9.4577664,46.4323093],[9.4544528,46.4209506],[9.4558756,46.4163566],[9.4617052,46.4118307],[9.4614034,46.4095105],[9.4668174,46.398315],[9.4664888,46.3919246],[9.4687973,46.3889361],[9.4645793,46.3836254],[9.4612265,46.3834259],[9.4632182,46.380228],[9.4611859,46.3758563],[9.4759326,46.3706113],[9.4794356,46.3711837],[9.4830533,46.367206],[9.4962684,46.3644374],[9.4998201,46.3598657],[9.5004483,46.3560432],[9.5086465,46.351329],[9.5082335,46.3480309],[9.5114785,46.3366149],[9.513781,46.3355022],[9.5141442,46.3324588],[9.5167095,46.3326066],[9.5184485,46.3270845],[9.5331785,46.3127452],[9.5495379,46.3023421],[9.5545189,46.3057646],[9.5585105,46.3064355],[9.5627572,46.3024185],[9.5731097,46.2992148],[9.5794922,46.2950968],[9.5898905,46.2951124],[9.592701,46.293536],[9.5991365,46.295772],[9.6103558,46.294581],[9.6186696,46.2874857],[9.62406,46.2883949],[9.6346724,46.2860002],[9.6388318,46.2859869],[9.6493926,46.2896162],[9.6517645,46.2927948],[9.6623408,46.296662],[9.6686464,46.2958765],[9.6699644,46.2998271],[9.6772827,46.3035911],[9.6774517,46.3018403],[9.681231,46.2998416],[9.6814831,46.2970857],[9.6882974,46.2936283],[9.6937409,46.2937164],[9.7018543,46.2910526],[9.7098321,46.2918122],[9.7144877,46.2928922],[9.7144902,46.2970151],[9.7180877,46.3061712],[9.7244373,46.3099028],[9.7257997,46.3130967],[9.7261414,46.319493],[9.7180184,46.3216256],[9.7172757,46.3239658],[9.7188428,46.3267617],[9.7233606,46.329036],[9.723422,46.3310135],[9.7275784,46.3326748],[9.7229422,46.3407052],[9.7368839,46.3507035],[9.7392909,46.3499397],[9.743502,46.3518039],[9.7472645,46.3477542],[9.75762,46.3441613],[9.7649419,46.3375915],[9.7775246,46.3347927],[9.7847185,46.3407425],[9.8023565,46.3439485],[9.8094231,46.3484354],[9.8183191,46.3496752],[9.8276001,46.3554186],[9.8327163,46.3612507],[9.8461146,46.361892],[9.8494721,46.3645781],[9.8563322,46.3630423],[9.8653102,46.3646647],[9.8683192,46.3623584],[9.8802637,46.3682026],[9.8835252,46.3715963],[9.8832753,46.3736139],[9.8983139,46.3765889],[9.9063797,46.3807596],[9.909723,46.3796118],[9.9170057,46.3703425],[9.9201056,46.371555],[9.9228845,46.3704913],[9.9249881,46.3660668],[9.9310374,46.367855],[9.93017,46.3718985],[9.9344614,46.3748487],[9.9527592,46.3793014],[9.958462,46.3781242],[9.9557037,46.373638],[9.964455,46.3637742],[9.9841682,46.3535367],[9.9851411,46.3516256],[9.99355,46.3524065],[9.9962877,46.3511702],[9.9944297,46.3464743],[9.9958989,46.3458327],[9.9959245,46.3422094],[9.9909809,46.3396445],[9.9906192,46.3371362],[9.9858839,46.3342402],[9.9841813,46.3285165],[9.9799775,46.3231323],[9.9945369,46.3139347],[10.0000553,46.3131759],[9.9996481,46.3098459],[9.9962594,46.3073353],[10.0008427,46.3037381],[10.0007606,46.3015338],[9.9960636,46.2973546],[9.9916954,46.2962855],[9.9959074,46.2849432],[10.0086993,46.2807604],[10.0312066,46.2770403],[10.0435907,46.2700506],[10.0555243,46.2658412],[10.0579957,46.2582112],[10.0561318,46.2569862],[10.0587597,46.2557447],[10.0606173,46.2482605],[10.0574736,46.2471352],[10.0570576,46.2441762],[10.0537303,46.2418188],[10.0536771,46.2358245],[10.043943,46.2296387],[10.0585906,46.2249775],[10.0630611,46.2201974],[10.0708307,46.2171555],[10.081091,46.2254514],[10.0885663,46.2277982],[10.1034622,46.2285714],[10.1091386,46.2257282],[10.1232544,46.2237905],[10.1285913,46.2255956],[10.1323004,46.2248788],[10.1460027,46.2301253],[10.1508508,46.2396429],[10.1749126,46.2546131],[10.1765029,46.2582769],[10.171995,46.2665954],[10.1634078,46.2712969],[10.1634145,46.2746147],[10.1612765,46.2772491],[10.1624232,46.2822451],[10.1544133,46.2854418],[10.1566003,46.2892857],[10.1542133,46.2927865],[10.1390678,46.2994587],[10.1386677,46.3046767],[10.1165953,46.3140865],[10.1130391,46.3233135],[10.1045192,46.3330906],[10.1059441,46.3421969],[10.109219,46.3462522],[10.1085586,46.3524124],[10.1130758,46.3525573],[10.1188455,46.357145],[10.1291017,46.3608681],[10.127306,46.3691648],[10.1260071,46.3697564],[10.1284106,46.3740242],[10.1272354,46.3774606],[10.1426086,46.3862241],[10.1475613,46.3868612],[10.1557316,46.3848913],[10.1619296,46.3874525],[10.1639813,46.390639],[10.1618481,46.4029918],[10.1626405,46.4050963],[10.1668839,46.4073848],[10.161158,46.4154217],[10.1570794,46.4158806],[10.14937,46.4128219],[10.147653,46.4142256],[10.1486634,46.4152715],[10.1471094,46.4231248],[10.1422312,46.4271075],[10.1431841,46.4283225],[10.1329947,46.4290837],[10.1289254,46.4317419],[10.1189916,46.4290977],[10.1172123,46.4260332],[10.1085938,46.4281267],[10.1060445,46.4253736],[10.1025775,46.4247956],[10.1006944,46.4213424],[10.0922825,46.4226658],[10.0807996,46.4210606],[10.0792046,46.423111],[10.0802553,46.4254169],[10.0771771,46.4282029],[10.0643776,46.4258734],[10.0603057,46.4283906],[10.0579899,46.4320458],[10.0582456,46.4382584],[10.0562651,46.4408692],[10.0525664,46.4397014],[10.0420535,46.4427235],[10.0391547,46.446944],[10.0424329,46.4490125],[10.0418509,46.4523193],[10.043856,46.4549776],[10.0469089,46.4559091],[10.0465777,46.4574984],[10.0524761,46.4604087],[10.0543439,46.4646302],[10.0515426,46.4677374],[10.051534,46.4719553],[10.0447797,46.476721],[10.042841,46.4800577],[10.0484758,46.4878149],[10.0452058,46.4903795],[10.0448002,46.4930628],[10.0455677,46.4962389],[10.0490361,46.4996068],[10.0439268,46.503874],[10.0423723,46.5101254],[10.0468062,46.5105146],[10.0514217,46.5133003],[10.0539911,46.5225884],[10.0504844,46.5288526],[10.0535277,46.5316706],[10.044381,46.5368808],[10.0439582,46.540118],[10.0467533,46.5440471],[10.0616225,46.5457754],[10.0635028,46.5486876],[10.0688769,46.5514099],[10.0717014,46.5590387],[10.0823813,46.5635536],[10.085395,46.5672287],[10.0799632,46.5711171],[10.0786603,46.575125],[10.0955767,46.5773425],[10.1007414,46.5827519],[10.1011538,46.5891819],[10.0970076,46.5934664],[10.097684,46.5976866],[10.1013903,46.6009774],[10.0988327,46.6054597],[10.1023501,46.6107195],[10.1066477,46.6106974],[10.1134869,46.6071007],[10.1276411,46.6050826],[10.1361985,46.6075386],[10.137346,46.6107421],[10.1435054,46.6106882],[10.1515061,46.6146183],[10.162405,46.6157068],[10.1830538,46.6239711],[10.1927506,46.6259355],[10.1938462,46.6231088],[10.2063572,46.6207704],[10.2153152,46.6169502],[10.2199523,46.6215821],[10.2197772,46.624224],[10.2241724,46.629126],[10.2388767,46.6353523],[10.2402521,46.6350942],[10.2411749,46.6270468],[10.2447744,46.6221686],[10.2588761,46.6104438],[10.2483822,46.6006666],[10.2420748,46.592209],[10.2414632,46.5891131],[10.2460576,46.5750088],[10.2541197,46.5712463],[10.2638025,46.5770918],[10.2695204,46.5776654],[10.2767283,46.5725606],[10.2874589,46.5703447],[10.2895522,46.5645256],[10.2960231,46.5589873],[10.2964924,46.5549125],[10.2944282,46.5519215],[10.296064,46.5499758],[10.3081357,46.5494274],[10.3114788,46.5467019],[10.3254591,46.5517458],[10.3381762,46.5427261],[10.3501541,46.5494139],[10.3497514,46.5527139],[10.3518501,46.5558562],[10.3704696,46.5539365],[10.3796818,46.5498032],[10.3842532,46.5500455],[10.397115,46.5439435],[10.4091576,46.5493081],[10.4182509,46.5513348],[10.4336083,46.5413378],[10.4366209,46.5373572],[10.4527897,46.530709],[10.458495,46.5364942],[10.4591047,46.5413042],[10.4715543,46.5428645],[10.4710842,46.5483669],[10.477754,46.5573739],[10.4740485,46.5627427],[10.4746861,46.5666535],[10.4766047,46.5675955],[10.4774155,46.5711551],[10.4805395,46.5747602],[10.4846946,46.5774329],[10.483398,46.5810695],[10.4878242,46.589538],[10.4837629,46.5921557],[10.4873299,46.5980591],[10.4844756,46.6050651],[10.4912662,46.6113389],[10.4922941,46.6151164],[10.487209,46.6156155],[10.4624573,46.6330944],[10.4461258,46.6412769],[10.441825,46.6390033],[10.4197466,46.6381166],[10.4092491,46.6349718],[10.4013023,46.6371815],[10.3999539,46.6384736],[10.4017064,46.6404623],[10.4002343,46.6458365],[10.3966774,46.6495968],[10.3964227,46.6524724],[10.3921149,46.6551393],[10.3909743,46.6589047],[10.3927046,46.6611373],[10.3909903,46.6680411],[10.3923623,46.6716063],[10.385466,46.6818219],[10.3817965,46.6843049],[10.3835413,46.6872772],[10.3932955,46.6892075],[10.4033022,46.7055039],[10.4095108,46.7053107],[10.416068,46.7089985],[10.4153491,46.7121014],[10.4180094,46.7145345],[10.4187612,46.7190186],[10.4144472,46.7206589],[10.4098514,46.7251448],[10.4089504,46.728274],[10.4005621,46.7323811],[10.4006211,46.7337317],[10.4100966,46.7376519],[10.4129086,46.7407901],[10.4356866,46.7527511],[10.4413999,46.7520382],[10.4426021,46.7538396],[10.444237,46.7598206],[10.4416848,46.7718639],[10.439217,46.7753798],[10.4352072,46.7775342],[10.4336918,46.7819734],[10.422706,46.7882431],[10.4266306,46.7894071],[10.4279246,46.7913414],[10.4267274,46.7942357],[10.4292779,46.7951275],[10.4295439,46.7967801],[10.4389801,46.7976389],[10.4476632,46.8011534],[10.448226,46.8033073],[10.4506746,46.8041351],[10.4578297,46.8165576],[10.4560236,46.8184751],[10.4559242,46.8220043],[10.4603936,46.8245409],[10.4565903,46.8301893],[10.4591169,46.8317392],[10.4600512,46.8346384],[10.463053,46.8340739],[10.4665877,46.8360608],[10.4663928,46.8394542],[10.4638636,46.8412953],[10.4688564,46.8477656],[10.4717956,46.8487714],[10.4679946,46.8621059],[10.4712517,46.8729554],[10.4692174,46.8810977],[10.4646828,46.8842734],[10.4750778,46.8942849],[10.4751691,46.9011317],[10.4777228,46.9034464],[10.4785285,46.9105884],[10.4862047,46.9154534],[10.4852687,46.9186203],[10.4882935,46.9262776],[10.4852822,46.9314418],[10.4893516,46.9377888],[10.476186,46.9410275],[10.4688096,46.9470933],[10.456912,46.950851],[10.4555774,46.9528425],[10.4491413,46.9523122],[10.426142,46.957465],[10.4220114,46.9607632],[10.422961,46.965572],[10.4271051,46.971231],[10.4265641,46.9756935],[10.4205876,46.9799408],[10.4125254,46.9826375],[10.4067907,46.988549],[10.4021809,46.9908622],[10.3983091,46.9971253],[10.3893298,47.0005271],[10.384695,46.9999965],[10.372071,46.9906726],[10.3549981,46.992366],[10.3465112,46.9895904],[10.344795,46.9830712],[10.3399905,46.9813093],[10.3407049,46.9783736],[10.3345108,46.9725173],[10.3340953,46.9694795],[10.3295077,46.9642765],[10.3296795,46.9589488],[10.3278289,46.9539816],[10.3245703,46.952191],[10.3093489,46.9501997],[10.3075917,46.9464733],[10.3085991,46.9434518],[10.3061303,46.9403095],[10.3171752,46.9309553],[10.3160518,46.9251765],[10.3007876,46.9246539],[10.2968663,46.9199499],[10.2910292,46.9232596],[10.2668744,46.9288293],[10.2405831,46.9313701],[10.2420114,46.9188282],[10.2370312,46.9157013],[10.2332973,46.9016407],[10.2257169,46.8959397],[10.2276279,46.8902094],[10.2348302,46.8846816],[10.233914,46.8778339],[10.2319744,46.8757994],[10.2327368,46.8709043],[10.2308372,46.8694364],[10.2326652,46.8662925],[10.2192278,46.8672836],[10.2038237,46.864614],[10.1990124,46.8666268],[10.1936587,46.8664423],[10.1912016,46.862983],[10.1834951,46.8590061],[10.1820054,46.8555112],[10.1717562,46.8536641],[10.169062,46.8506592],[10.162691,46.8509894],[10.1574114,46.8478611],[10.1545819,46.8503203],[10.1472815,46.8514056],[10.1394105,46.8473781],[10.1230851,46.8484838],[10.1199453,46.8473842],[10.1191889,46.8441904],[10.1052423,46.8408852],[10.1005371,46.84624],[10.0919772,46.8514316],[10.0926731,46.8581338],[10.0874505,46.8611963],[10.0595933,46.8607711],[10.0511978,46.8639422],[10.0505361,46.8709148],[10.0525828,46.8746941],[10.0519377,46.8767513],[10.0424375,46.8804396],[10.0393089,46.8858067],[10.0322055,46.8880172],[10.0264672,46.8958057],[10.0198597,46.898779],[10.0178184,46.9016148],[10.0059087,46.8987998],[9.9973992,46.9020349],[9.9901098,46.9024082],[9.9886152,46.9036059],[9.990122,46.9041295],[9.9824336,46.9061986],[9.981782,46.9119187],[9.9778951,46.9159003],[9.9665663,46.9122226],[9.9631115,46.9123974],[9.9590704,46.9160246],[9.946121,46.9123495],[9.9372253,46.9133112],[9.9215303,46.918824],[9.9123097,46.9260554],[9.9063207,46.9253006],[9.9000247,46.9273371],[9.8944853,46.9316447],[9.8844069,46.9330178],[9.8807249,46.9350167],[9.8761296,46.9346278],[9.8776839,46.9381338],[9.8807189,46.9400674],[9.8765706,46.9407057],[9.8767676,46.9476219],[9.8748781,46.9503903],[9.8771756,46.9516063],[9.8787197,46.9570665],[9.8707312,46.9632091],[9.8755831,46.9674954],[9.8757003,46.9736528],[9.8845489,46.9808478],[9.8830919,46.9832673],[9.8848165,46.9854648],[9.8911209,46.9883498],[9.8923039,46.9903589],[9.889512,46.9941582],[9.8887771,47.0007231],[9.8732561,47.0063484],[9.8707338,47.0096536],[9.8720209,47.0102041],[9.8711507,47.0130577],[9.8803497,47.0172237],[9.8794015,47.0195565],[9.8762464,47.0212266],[9.8597449,47.0232098],[9.8569573,47.0188022],[9.8527287,47.0164129],[9.8410085,47.0151188],[9.8381429,47.0129497],[9.8397313,47.0126543],[9.8361195,47.012531],[9.8335368,47.0145182],[9.8307567,47.0143189],[9.8235302,47.0198587],[9.8075641,47.0235627],[9.8013994,47.0290874],[9.7918885,47.0316862],[9.7849142,47.0384853],[9.7691335,47.0390113],[9.7630769,47.0373717],[9.7480774,47.0369227],[9.7453077,47.0391342],[9.7452376,47.0411041],[9.7418488,47.042675],[9.718211,47.0433745],[9.7070102,47.0480458],[9.7056711,47.0503506],[9.7085942,47.0516644],[9.7076239,47.0538077],[9.69756,47.0523884],[9.6881914,47.0552262],[9.6820807,47.0588839],[9.6818398,47.0620979],[9.6582148,47.0581823],[9.6450573,47.059775],[9.6413247,47.0539224],[9.6326718,47.0512522],[9.6172016,47.0536259],[9.603472,47.0617744],[9.5997619,47.0589706],[9.5821595,47.052704],[9.5729162,47.0527638],[9.5589416,47.0484291],[9.5545504,47.050261],[9.5516187,47.058843],[9.5397528,47.0651482],[9.5165385,47.0600894],[9.5120732,47.0568181],[9.4999962,47.0571275],[9.4995322,47.0541548],[9.4913076,47.0562517],[9.4857484,47.0490919],[9.4818879,47.0525407],[9.4822741,47.0561191],[9.4810537,47.0560746],[9.4762706,47.0534591],[9.4757865,47.0517524],[9.4784374,47.0474809],[9.5060619,47.0186885],[9.5106838,47.0091449],[9.5186316,47.0005389],[9.5455732,46.9765687],[9.5412247,46.9742934],[9.5301577,46.9741436],[9.5202714,46.9714129],[9.5173964,46.9683911],[9.5186979,46.9650978],[9.5184771,46.955862],[9.5045972,46.9536684],[9.5031514,46.9494749],[9.5002045,46.9495933],[9.4985722,46.9470328],[9.4960992,46.9403374],[9.4928638,46.9392167],[9.4937076,46.937716],[9.4865233,46.935524],[9.4857178,46.9303797],[9.4804315,46.9259786],[9.4777845,46.9205665],[9.4785736,46.9156817],[9.4879923,46.9122928],[9.4822737,46.9082093],[9.4754217,46.9064212],[9.4710062,46.9014202],[9.467249,46.8998878],[9.4697363,46.8914727],[9.4677663,46.8872694],[9.4660476,46.8858961],[9.4542546,46.8860551],[9.4559388,46.881209],[9.45254,46.874617],[9.4488629,46.8728865],[9.4378018,46.8797379],[9.4332544,46.8845738],[9.4198935,46.8895669],[9.40994,46.8919759],[9.3994124,46.8921324],[9.3816947,46.8976333],[9.3655032,46.8969199],[9.3470318,46.8996724],[9.3431302,46.8982857],[9.3386677,46.9020295],[9.321897,46.9005987],[9.3176212,46.9012315],[9.3099293,46.9057655],[9.2933008,46.9070865],[9.2869138,46.9050623],[9.2768935,46.9073488],[9.2672303,46.903148],[9.2574883,46.9083978],[9.2543512,46.9132325],[9.2488895,46.9162714],[9.2446224,46.9142937],[9.239684,46.9079083],[9.2345504,46.9082942],[9.2265911,46.9055998],[9.2179634,46.894778],[9.2063541,46.8870118],[9.2041261,46.8830975],[9.1999127,46.8806498],[9.191487,46.8787373],[9.1882323,46.8764333],[9.1774523,46.8791089],[9.1530041,46.8798352],[9.1567987,46.8739334],[9.1466027,46.8711799],[9.1405478,46.8618409],[9.1283038,46.8588023],[9.1253902,46.8554574],[9.1198918,46.8548403],[9.1123048,46.850564],[9.104857,46.8524749],[9.1036063,46.8596946],[9.0946713,46.8675847],[9.0949332,46.8708724],[9.0764892,46.8751854],[9.0647082,46.8752091],[9.0544262,46.8682906],[9.0453569,46.8652658],[9.0441854,46.8555179],[9.0459589,46.8502098],[9.0375803,46.8451145],[9.0337241,46.8390507],[9.0343992,46.8353451],[9.0274986,46.8300293],[9.0213885,46.8217415],[9.019973,46.8173275],[9.0090128,46.8111813],[8.9656462,46.8065178],[8.9577479,46.8044403],[8.9533958,46.8050153],[8.9507235,46.8027066],[8.9448892,46.8022976],[8.9401734,46.7994199],[8.9282782,46.796471],[8.9254504,46.7980452],[8.9180958,46.7983185],[8.9140595,46.8006118],[8.9135,46.8021935],[8.9156086,46.8054481],[8.9140671,46.8086108],[8.9148586,46.8111533],[8.9067452,46.8100956],[8.901048,46.8117574],[8.8986506,46.8142054],[8.8821472,46.8139715],[8.8770464,46.8129185],[8.8739269,46.8086381],[8.8694586,46.8066573],[8.859879,46.8056994],[8.8525398,46.7996956],[8.8472958,46.7980098],[8.8482091,46.7934443],[8.8344592,46.7952151],[8.8281425,46.7921464],[8.826304,46.7883526],[8.828946,46.7835442],[8.8278981,46.7792022],[8.830356,46.7711532],[8.8345695,46.7668561],[8.8317088,46.7643352],[8.8254144,46.7660377],[8.8185456,46.7624842],[8.8185637,46.7584085],[8.814523,46.7552667],[8.8139385,46.7493659],[8.8104307,46.7449252],[8.8129787,46.7373147],[8.7995202,46.731453],[8.7921163,46.7313651],[8.7819848,46.7283121],[8.7805355,46.7312153],[8.7773544,46.7322581],[8.7727777,46.7397598],[8.7696582,46.740579],[8.7695888,46.7443493],[8.7661104,46.7447833],[8.747639,46.7359106],[8.7443965,46.7288814],[8.7490648,46.7207402],[8.7430267,46.7155189],[8.7352789,46.7130366],[8.7260973,46.7068741],[8.717705,46.7060846],[8.7171968,46.7025881],[8.7089842,46.6989621],[8.6985657,46.7034811],[8.692587,46.7018487],[8.6892981,46.6961681],[8.6862819,46.6941788],[8.6763262,46.6942145],[8.6736487,46.6909099],[8.6751767,46.6845247],[8.6728402,46.6812255],[8.6742194,46.6783392],[8.6734706,46.672633],[8.6786074,46.6642656],[8.6662122,46.6559717],[8.6613934,46.6560245],[8.6548784,46.649972],[8.6585819,46.6471664],[8.6564366,46.6437396],[8.6574725,46.6416339],[8.6518748,46.6379398],[8.6510632,46.6345886]]]]}, "properties": {"osm_id": -1686631, "boundary": "administrative", "admin_level": 4, "parents": "-51701", "name": "Grisons", "local_name": "Graubünden/Grischun/Grigioni", "name_en": "Grisons"}}, {"type": "Feature", "geometry": {"type":"MultiPolygon","coordinates":[[[[8.8712284,46.8420353],[8.8736715,46.840552],[8.8743635,46.8352086],[8.881635,46.8290721],[8.8801622,46.8200807],[8.8755647,46.8159667],[8.8770464,46.8129185],[8.8983846,46.8142348],[8.901048,46.8117574],[8.9067452,46.8100956],[8.9148586,46.8111533],[8.9140671,46.8086108],[8.9156086,46.8054481],[8.9135,46.8021935],[8.9140595,46.8006118],[8.9180958,46.7983185],[8.9286326,46.796525],[8.9401734,46.7994199],[8.9448892,46.8022976],[8.9507235,46.8027066],[8.9533958,46.8050153],[8.9577479,46.8044403],[8.9656462,46.8065178],[9.0090128,46.8111813],[9.019973,46.8173275],[9.0213885,46.8217415],[9.0274986,46.8300293],[9.0343992,46.8353451],[9.0337241,46.8390507],[9.0375803,46.8451145],[9.0459589,46.8502098],[9.0441854,46.8555179],[9.0453569,46.8652658],[9.0544262,46.8682906],[9.0647082,46.8752091],[9.0764892,46.8751854],[9.0949332,46.8708724],[9.0946713,46.8675847],[9.1036063,46.8596946],[9.104857,46.8524749],[9.1123048,46.850564],[9.1198918,46.8548403],[9.1253902,46.8554574],[9.1283038,46.8588023],[9.1405478,46.8618409],[9.1466027,46.8711799],[9.1567987,46.8739334],[9.1530041,46.8798352],[9.1774523,46.8791089],[9.1882323,46.8764333],[9.2041261,46.8830975],[9.2063541,46.8870118],[9.2179634,46.894778],[9.2265911,46.9055998],[9.2345504,46.9082942],[9.2401989,46.9081875],[9.2446224,46.9142937],[9.2488528,46.9160786],[9.2515088,46.9220867],[9.2502246,46.9241704],[9.2525772,46.9270313],[9.2502545,46.9346294],[9.2391284,46.9393859],[9.2397745,46.9407713],[9.2362988,46.9448502],[9.2367496,46.9545665],[9.2447029,46.9564677],[9.2460639,46.9587474],[9.2427356,46.9657885],[9.246798,46.975641],[9.2465345,46.9787471],[9.2436286,46.9823776],[9.2465684,46.9870345],[9.2455505,46.9921988],[9.2498737,46.9952145],[9.2496743,46.9979581],[9.2428164,47.0072621],[9.242692,47.0151932],[9.2366431,47.0217942],[9.2363488,47.0239832],[9.2300394,47.0258199],[9.2219354,47.0325835],[9.2145001,47.0330615],[9.2089667,47.0357312],[9.2016527,47.0351215],[9.180518,47.0259225],[9.175206,47.0288079],[9.1695902,47.0266309],[9.1656639,47.0268807],[9.1380588,47.0391352],[9.1533535,47.0472727],[9.167394,47.0494002],[9.1713295,47.0525696],[9.1745272,47.0529263],[9.1837458,47.0596278],[9.1852521,47.0642343],[9.1902906,47.0698927],[9.1920237,47.0735213],[9.1906239,47.0739477],[9.1887798,47.0854796],[9.1912225,47.0909614],[9.1894293,47.090886],[9.1876371,47.093817],[9.1862452,47.1000098],[9.190011,47.1099206],[9.1886283,47.1152313],[9.1898696,47.1236999],[9.1476938,47.1289174],[9.1359131,47.13198],[9.1154179,47.1327527],[9.1081088,47.1313214],[9.1012291,47.1332506],[9.0686985,47.1298391],[9.0055892,47.1739901],[8.9932839,47.1637845],[8.9744238,47.1431805],[8.9737773,47.1403677],[8.9673854,47.1366351],[8.9693676,47.1345046],[8.9681417,47.1335025],[8.9692589,47.1305064],[8.9652887,47.1214823],[8.9671279,47.119179],[8.9718909,47.1181168],[8.9736844,47.1150994],[8.9693387,47.1086804],[8.9706355,47.103773],[8.9596864,47.1002096],[8.9541421,47.0942606],[8.9546024,47.0906343],[8.9759838,47.0857083],[8.9664191,47.0814153],[8.9650931,47.0781779],[8.960822,47.0762539],[8.9617614,47.0713752],[8.9510983,47.0608529],[8.9480639,47.0493588],[8.9409129,47.0476171],[8.9369145,47.0436618],[8.9219965,47.0382951],[8.9153386,47.0385186],[8.9146246,47.0399248],[8.9031362,47.0385395],[8.9005113,47.0357546],[8.9036071,47.0272615],[8.8929825,47.0236406],[8.8948834,47.0209409],[8.900041,47.0209652],[8.9104587,47.0170715],[8.9114828,47.0088534],[8.9155602,47.0074245],[8.9181399,47.0022452],[8.9284019,46.9976589],[8.932321,46.9910583],[8.9375605,46.9865815],[8.9413668,46.9877642],[8.9410192,46.9847369],[8.9321428,46.9822889],[8.9456524,46.9671326],[8.9497659,46.9694626],[8.9485761,46.9682816],[8.9555231,46.9629717],[8.9716391,46.9599052],[8.96291,46.9546865],[8.9611905,46.9473319],[8.9552128,46.9389541],[8.9583077,46.9345945],[8.9569151,46.9341182],[8.9598148,46.9312277],[8.9632079,46.9304628],[8.9632758,46.9268362],[8.9482254,46.9254163],[8.935372,46.919872],[8.9435621,46.9061636],[8.9485786,46.9016111],[8.9534077,46.9006934],[8.9528116,46.8983576],[8.9572771,46.8879052],[8.9578008,46.8795013],[8.9559119,46.8753321],[8.9417106,46.8708924],[8.9333747,46.8653412],[8.9231221,46.8633005],[8.9178089,46.8604807],[8.9092456,46.8609781],[8.8956601,46.8495718],[8.8712284,46.8420353]]]]}, "properties": {"osm_id": -1685673, "boundary": "administrative", "admin_level": 4, "parents": "-51701", "name": "Glarus", "local_name": "Glarus", "name_en": "Glarus"}}]}