{"type":"FeatureCollection","features":[{"type":"Feature","properties":{},"geometry":{"coordinates":[[[8.998269108955355,47.82902156835644],[8.969262114643044,47.816403963164674],[8.890381501707594,47.741462748199524],[8.829181026153549,47.63251443193582],[9.14197977645182,47.63709774927517],[9.541822883401494,47.42589871119071],[9.314699019421141,47.24709487081711],[9.45614011847863,47.04452224616139],[10.055904778903596,46.827221463631474],[10.15518555035763,46.828151975750075],[10.24630625840362,47.153766880374974],[10.251678104898645,47.383649959267615],[10.019116297795051,47.53445211156205],[9.888555283280823,47.59868719411878],[9.672313602991437,47.65917955705581],[9.423431669073665,47.759844596066614],[9.078842201940347,47.84283054736787],[8.998269108955355,47.82902156835644]]],"type":"Polygon"}}]}